{"type": "FeatureCollection", "features": [ {"type": "Feature", "properties": {"norad_id": 34001, "name": "COSMOS 2251 DEB", "group": "cosmos-2251-debris", "lat": 22.209274008027368, "lon": -68.32869470011643, "alt_km": 753.870425914869, "timestamp": "2025-12-10T21:43:22.484416+00:00", "meta": {"OBJECT_NAME": "COSMOS 2251 DEB", "OBJECT_ID": "1993-036GL", "EPOCH": "2025-12-10T07:09:50.734368", "MEAN_MOTION": 14.37093599, "ECCENTRICITY": 0.0019863, "INCLINATION": 74.0386, "RA_OF_ASC_NODE": 286.0759, "ARG_OF_PERICENTER": 7.6446, "MEAN_ANOMALY": 118.4474, "EPHEMERIS_TYPE": 0, "CLASSIFICATION_TYPE": "U", "NORAD_CAT_ID": 34001, "ELEMENT_SET_NO": 999, "REV_AT_EPOCH": 88111, "BSTAR": 0.00035299, "MEAN_MOTION_DOT": 1.025e-05, "MEAN_MOTION_DDOT": 0}, "tle": {"line1": "1 34001U 93036GL  25344.29850387  .00001025  00000+0  35299-3 0  9997", "line2": "2 34001  74.0386 286.0759 0019863   7.6446 118.4474 14.37093599881117"}}, "geometry": {"type": "Point", "coordinates": [-68.32869470011643, 22.209274008027368]}}, {"type": "Feature", "properties": {"norad_id": 34003, "name": "COSMOS 2251 DEB", "group": "cosmos-2251-debris", "lat": -70.15333514343114, "lon": 160.4947414474169, "alt_km": 1113.9570807388818, "timestamp": "2025-12-10T21:43:22.484426+00:00", "meta": {"OBJECT_NAME": "COSMOS 2251 DEB", "OBJECT_ID": "1993-036GN", "EPOCH": "2025-12-10T06:36:15.020640", "MEAN_MOTION": 13.84128713, "ECCENTRICITY": 0.0274168, "INCLINATION": 74.0784, "RA_OF_ASC_NODE": 289.2922, "ARG_OF_PERICENTER": 41.8907, "MEAN_ANOMALY": 320.2842, "EPHEMERIS_TYPE": 0, "CLASSIFICATION_TYPE": "U", "NORAD_CAT_ID": 34003, "ELEMENT_SET_NO": 999, "REV_AT_EPOCH": 84391, "BSTAR": 0.0031922, "MEAN_MOTION_DOT": 4.737e-05, "MEAN_MOTION_DDOT": 0}, "tle": {"line1": "1 34003U 93036GN  25344.27517385  .00004737  00000+0  31922-2 0  9996", "line2": "2 34003  74.0784 289.2922 0274168  41.8907 320.2842 13.84128713843917"}}, "geometry": {"type": "Point", "coordinates": [160.4947414474169, -70.15333514343114]}}, {"type": "Feature", "properties": {"norad_id": 34004, "name": "COSMOS 2251 DEB", "group": "cosmos-2251-debris", "lat": -10.046858633395992, "lon": 139.45788478678764, "alt_km": 750.5093400250444, "timestamp": "2025-12-10T21:43:22.484436+00:00", "meta": {"OBJECT_NAME": "COSMOS 2251 DEB", "OBJECT_ID": "1993-036GP", "EPOCH": "2025-12-09T08:23:26.791296", "MEAN_MOTION": 14.48954791, "ECCENTRICITY": 0.00333157, "INCLINATION": 74.0363, "RA_OF_ASC_NODE": 319.4658, "ARG_OF_PERICENTER": 332.1121, "MEAN_ANOMALY": 27.8252, "EPHEMERIS_TYPE": 0, "CLASSIFICATION_TYPE": "U", "NORAD_CAT_ID": 34004, "ELEMENT_SET_NO": 999, "REV_AT_EPOCH": 87981, "BSTAR": 0.0021272229, "MEAN_MOTION_DOT": 8.098e-05, "MEAN_MOTION_DDOT": 0}, "tle": {"line1": "1 34004U 93036GP  25343.34961564  .00008098  00000+0  21272-2 0  9997", "line2": "2 34004  74.0363 319.4658 0033315 332.1121  27.8252 14.48954791879811"}}, "geometry": {"type": "Point", "coordinates": [139.45788478678764, -10.046858633395992]}}, {"type": "Feature", "properties": {"norad_id": 34005, "name": "COSMOS 2251 DEB", "group": "cosmos-2251-debris", "lat": 17.55625040974999, "lon": 31.843995594277292, "alt_km": 772.3117917374584, "timestamp": "2025-12-10T21:43:22.484446+00:00", "meta": {"OBJECT_NAME": "COSMOS 2251 DEB", "OBJECT_ID": "1993-036GQ", "EPOCH": "2025-12-10T10:10:13.639008", "MEAN_MOTION": 14.40301807, "ECCENTRICITY": 0.00207628, "INCLINATION": 74.0446, "RA_OF_ASC_NODE": 217.9261, "ARG_OF_PERICENTER": 336.4734, "MEAN_ANOMALY": 210.3152, "EPHEMERIS_TYPE": 0, "CLASSIFICATION_TYPE": "U", "NORAD_CAT_ID": 34005, "ELEMENT_SET_NO": 999, "REV_AT_EPOCH": 88345, "BSTAR": 0.00016591368, "MEAN_MOTION_DOT": 5.01e-06, "MEAN_MOTION_DDOT": 0}, "tle": {"line1": "1 34005U 93036GQ  25344.42376897  .00000501  00000+0  16591-3 0  9997", "line2": "2 34005  74.0446 217.9261 0020762 336.4734 210.3152 14.40301807883454"}}, "geometry": {"type": "Point", "coordinates": [31.843995594277292, 17.55625040974999]}}, {"type": "Feature", "properties": {"norad_id": 34006, "name": "COSMOS 2251 DEB", "group": "cosmos-2251-debris", "lat": 63.14298343755381, "lon": -178.6465409869132, "alt_km": 570.2579775328222, "timestamp": "2025-12-10T21:43:22.484456+00:00", "meta": {"OBJECT_NAME": "COSMOS 2251 DEB", "OBJECT_ID": "1993-036GR", "EPOCH": "2025-12-10T12:04:03.870912", "MEAN_MOTION": 14.94482951, "ECCENTRICITY": 0.00115295, "INCLINATION": 74.0548, "RA_OF_ASC_NODE": 147.7883, "ARG_OF_PERICENTER": 97.2666, "MEAN_ANOMALY": 327.4067, "EPHEMERIS_TYPE": 0, "CLASSIFICATION_TYPE": "U", "NORAD_CAT_ID": 34006, "ELEMENT_SET_NO": 999, "REV_AT_EPOCH": 88635, "BSTAR": 0.005146864, "MEAN_MOTION_DOT": 0.00056042, "MEAN_MOTION_DDOT": 0}, "tle": {"line1": "1 34006U 93036GR  25344.50282258  .00056042  00000+0  51469-2 0  9997", "line2": "2 34006  74.0548 147.7883 0011529  97.2666 327.4067 14.94482951886351"}}, "geometry": {"type": "Point", "coordinates": [-178.6465409869132, 63.14298343755381]}}, {"type": "Feature", "properties": {"norad_id": 34007, "name": "COSMOS 2251 DEB", "group": "cosmos-2251-debris", "lat": -22.53560241684965, "lon": 177.25732552971093, "alt_km": 675.8897954977256, "timestamp": "2025-12-10T21:43:22.484466+00:00", "meta": {"OBJECT_NAME": "COSMOS 2251 DEB", "OBJECT_ID": "1993-036GS", "EPOCH": "2025-12-10T10:57:59.372352", "MEAN_MOTION": 14.64759361, "ECCENTRICITY": 0.00443946, "INCLINATION": 74.0196, "RA_OF_ASC_NODE": 351.2905, "ARG_OF_PERICENTER": 127.0169, "MEAN_ANOMALY": 233.5074, "EPHEMERIS_TYPE": 0, "CLASSIFICATION_TYPE": "U", "NORAD_CAT_ID": 34007, "ELEMENT_SET_NO": 999, "REV_AT_EPOCH": 89046, "BSTAR": 0.00099964395, "MEAN_MOTION_DOT": 5.378e-05, "MEAN_MOTION_DDOT": 0}, "tle": {"line1": "1 34007U 93036GS  25344.45693718  .00005378  00000+0  99964-3 0  9998", "line2": "2 34007  74.0196 351.2905 0044394 127.0169 233.5074 14.64759361890465"}}, "geometry": {"type": "Point", "coordinates": [177.25732552971093, -22.53560241684965]}}, {"type": "Feature", "properties": {"norad_id": 34008, "name": "COSMOS 2251 DEB", "group": "cosmos-2251-debris", "lat": 59.87353008961857, "lon": 124.31120225907958, "alt_km": 789.5278616355163, "timestamp": "2025-12-10T21:43:22.484476+00:00", "meta": {"OBJECT_NAME": "COSMOS 2251 DEB", "OBJECT_ID": "1993-036GT", "EPOCH": "2025-12-10T09:47:13.157952", "MEAN_MOTION": 14.33143743, "ECCENTRICITY": 0.00242353, "INCLINATION": 74.0341, "RA_OF_ASC_NODE": 334.7803, "ARG_OF_PERICENTER": 330.4286, "MEAN_ANOMALY": 100.402, "EPHEMERIS_TYPE": 0, "CLASSIFICATION_TYPE": "U", "NORAD_CAT_ID": 34008, "ELEMENT_SET_NO": 999, "REV_AT_EPOCH": 87931, "BSTAR": 0.00020370096, "MEAN_MOTION_DOT": 5.35e-06, "MEAN_MOTION_DDOT": 0}, "tle": {"line1": "1 34008U 93036GT  25344.40779118  .00000535  00000+0  20370-3 0  9998", "line2": "2 34008  74.0341 334.7803 0024235 330.4286 100.4020 14.33143743879314"}}, "geometry": {"type": "Point", "coordinates": [124.31120225907958, 59.87353008961857]}}, {"type": "Feature", "properties": {"norad_id": 34009, "name": "COSMOS 2251 DEB", "group": "cosmos-2251-debris", "lat": 27.273235883693616, "lon": 151.80403213300622, "alt_km": 783.0509461826932, "timestamp": "2025-12-10T21:43:22.484486+00:00", "meta": {"OBJECT_NAME": "COSMOS 2251 DEB", "OBJECT_ID": "1993-036GU", "EPOCH": "2025-12-10T09:48:55.839168", "MEAN_MOTION": 14.33219299, "ECCENTRICITY": 0.00264277, "INCLINATION": 74.037, "RA_OF_ASC_NODE": 341.1962, "ARG_OF_PERICENTER": 51.5714, "MEAN_ANOMALY": 60.7075, "EPHEMERIS_TYPE": 0, "CLASSIFICATION_TYPE": "U", "NORAD_CAT_ID": 34009, "ELEMENT_SET_NO": 999, "REV_AT_EPOCH": 87912, "BSTAR": 0.00022141766, "MEAN_MOTION_DOT": 5.85e-06, "MEAN_MOTION_DDOT": 0}, "tle": {"line1": "1 34009U 93036GU  25344.40897962  .00000585  00000+0  22142-3 0  9991", "line2": "2 34009  74.0370 341.1962 0026427  51.5714  60.7075 14.33219299879124"}}, "geometry": {"type": "Point", "coordinates": [151.80403213300622, 27.273235883693616]}}, {"type": "Feature", "properties": {"norad_id": 34010, "name": "COSMOS 2251 DEB", "group": "cosmos-2251-debris", "lat": -1.1448809056492386, "lon": 107.48406726636877, "alt_km": 515.8219662338752, "timestamp": "2025-12-10T21:43:22.484496+00:00", "meta": {"OBJECT_NAME": "COSMOS 2251 DEB", "OBJECT_ID": "1993-036GV", "EPOCH": "2025-12-10T06:41:36.000096", "MEAN_MOTION": 15.17959344, "ECCENTRICITY": 0.0004811, "INCLINATION": 73.9979, "RA_OF_ASC_NODE": 288.4666, "ARG_OF_PERICENTER": 66.6329, "MEAN_ANOMALY": 293.5373, "EPHEMERIS_TYPE": 0, "CLASSIFICATION_TYPE": "U", "NORAD_CAT_ID": 34010, "ELEMENT_SET_NO": 999, "REV_AT_EPOCH": 89248, "BSTAR": 0.0064667, "MEAN_MOTION_DOT": 0.00133837, "MEAN_MOTION_DDOT": 0}, "tle": {"line1": "1 34010U 93036GV  25344.27888889  .00133837  00000+0  64667-2 0  9990", "line2": "2 34010  73.9979 288.4666 0004811  66.6329 293.5373 15.17959344892481"}}, "geometry": {"type": "Point", "coordinates": [107.48406726636877, -1.1448809056492386]}}, {"type": "Feature", "properties": {"norad_id": 34011, "name": "COSMOS 2251 DEB", "group": "cosmos-2251-debris", "lat": 71.02132004304389, "lon": 97.09801548564975, "alt_km": 726.8492409812789, "timestamp": "2025-12-10T21:43:22.484506+00:00", "meta": {"OBJECT_NAME": "COSMOS 2251 DEB", "OBJECT_ID": "1993-036GW", "EPOCH": "2025-12-10T09:36:18.017856", "MEAN_MOTION": 14.41751389, "ECCENTRICITY": 0.00354617, "INCLINATION": 74.0156, "RA_OF_ASC_NODE": 334.4904, "ARG_OF_PERICENTER": 58.7387, "MEAN_ANOMALY": 301.7234, "EPHEMERIS_TYPE": 0, "CLASSIFICATION_TYPE": "U", "NORAD_CAT_ID": 34011, "ELEMENT_SET_NO": 999, "REV_AT_EPOCH": 87882, "BSTAR": 0.0011734129, "MEAN_MOTION_DOT": 3.834e-05, "MEAN_MOTION_DDOT": 0}, "tle": {"line1": "1 34011U 93036GW  25344.40020854  .00003834  00000+0  11734-2 0  9996", "line2": "2 34011  74.0156 334.4904 0035461  58.7387 301.7234 14.41751389878824"}}, "geometry": {"type": "Point", "coordinates": [97.09801548564975, 71.02132004304389]}}]}